{"type": "FeatureCollection", "features": [ {"type": "Feature", "properties": {"norad_id": 41785, "name": "ALSAT 1B", "group": "resource", "lat": 1.7707958390409109, "lon": 2.6438683662343068, "alt_km": 656.9872958106889, "timestamp": "2025-12-17T07:00:46.549032+00:00", "meta": {"OBJECT_NAME": "ALSAT 1B", "OBJECT_ID": "2016-059C", "EPOCH": "2025-12-17T00:28:46.195968", "MEAN_MOTION": 14.72081532, "ECCENTRICITY": 0.00107808, "INCLINATION": 97.7816, "RA_OF_ASC_NODE": 2.6256, "ARG_OF_PERICENTER": 91.1635, "MEAN_ANOMALY": 269.0808, "EPHEMERIS_TYPE": 0, "CLASSIFICATION_TYPE": "U", "NORAD_CAT_ID": 41785, "ELEMENT_SET_NO": 999, "REV_AT_EPOCH": 49377, "BSTAR": 0.00011593442, "MEAN_MOTION_DOT": 6.82e-06, "MEAN_MOTION_DDOT": 0}, "tle": {"line1": "1 41785U 16059C   25351.01997912  .00000682  00000+0  11593-3 0  9997", "line2": "2 41785  97.7816   2.6256 0010780  91.1635 269.0808 14.72081532493773"}}, "geometry": {"type": "Point", "coordinates": [2.6438683662343068, 1.7707958390409109]}}, {"type": "Feature", "properties": {"norad_id": 41787, "name": "PATHFINDER 1", "group": "resource", "lat": 2.39396883638911, "lon": -6.474339917113344, "alt_km": 663.2486844714031, "timestamp": "2025-12-17T07:00:46.549042+00:00", "meta": {"OBJECT_NAME": "PATHFINDER 1", "OBJECT_ID": "2016-059E", "EPOCH": "2025-12-16T22:49:08.122944", "MEAN_MOTION": 14.67328757, "ECCENTRICITY": 0.00299561, "INCLINATION": 97.8137, "RA_OF_ASC_NODE": 353.529, "ARG_OF_PERICENTER": 68.4108, "MEAN_ANOMALY": 292.0284, "EPHEMERIS_TYPE": 0, "CLASSIFICATION_TYPE": "U", "NORAD_CAT_ID": 41787, "ELEMENT_SET_NO": 999, "REV_AT_EPOCH": 49298, "BSTAR": 0.00013619089, "MEAN_MOTION_DOT": 7.27e-06, "MEAN_MOTION_DDOT": 0}, "tle": {"line1": "1 41787U 16059E   25350.95078846  .00000727  00000+0  13619-3 0  9998", "line2": "2 41787  97.8137 353.5290 0029956  68.4108 292.0284 14.67328757492988"}}, "geometry": {"type": "Point", "coordinates": [-6.474339917113344, 2.39396883638911]}}, {"type": "Feature", "properties": {"norad_id": 41790, "name": "SCATSAT 1", "group": "resource", "lat": -6.40032611543611, "lon": -132.90135445066832, "alt_km": 624.5232887114025, "timestamp": "2025-12-17T07:00:46.549052+00:00", "meta": {"OBJECT_NAME": "SCATSAT 1", "OBJECT_ID": "2016-059H", "EPOCH": "2025-12-16T17:11:18.157632", "MEAN_MOTION": 14.78950183, "ECCENTRICITY": 0.00563832, "INCLINATION": 98.1461, "RA_OF_ASC_NODE": 47.4361, "ARG_OF_PERICENTER": 115.4342, "MEAN_ANOMALY": 245.2718, "EPHEMERIS_TYPE": 0, "CLASSIFICATION_TYPE": "U", "NORAD_CAT_ID": 41790, "ELEMENT_SET_NO": 999, "REV_AT_EPOCH": 7461, "BSTAR": 0.00019501517, "MEAN_MOTION_DOT": 1.421e-05, "MEAN_MOTION_DDOT": 0}, "tle": {"line1": "1 41790U 16059H   25350.71618238  .00001421  00000+0  19502-3 0  9990", "line2": "2 41790  98.1461  47.4361 0056383 115.4342 245.2718 14.78950183 74615"}}, "geometry": {"type": "Point", "coordinates": [-132.90135445066832, -6.40032611543611]}}, {"type": "Feature", "properties": {"norad_id": 41875, "name": "GOKTURK 1A", "group": "resource", "lat": 5.61496437720885, "lon": -117.2099434228867, "alt_km": 686.1614712705295, "timestamp": "2025-12-17T07:00:46.549063+00:00", "meta": {"OBJECT_NAME": "GOKTURK 1A", "OBJECT_ID": "2016-073A", "EPOCH": "2025-12-16T22:46:43.148064", "MEAN_MOTION": 14.62784617, "ECCENTRICITY": 0.00012656, "INCLINATION": 98.143, "RA_OF_ASC_NODE": 243.2582, "ARG_OF_PERICENTER": 79.7232, "MEAN_ANOMALY": 280.4112, "EPHEMERIS_TYPE": 0, "CLASSIFICATION_TYPE": "U", "NORAD_CAT_ID": 41875, "ELEMENT_SET_NO": 999, "REV_AT_EPOCH": 48218, "BSTAR": 7.6837886e-05, "MEAN_MOTION_DOT": 3.45e-06, "MEAN_MOTION_DDOT": 0}, "tle": {"line1": "1 41875U 16073A   25350.94911051  .00000345  00000+0  76838-4 0  9994", "line2": "2 41875  98.1430 243.2582 0001265  79.7232 280.4112 14.62784617482189"}}, "geometry": {"type": "Point", "coordinates": [-117.2099434228867, 5.61496437720885]}}, {"type": "Feature", "properties": {"norad_id": 41877, "name": "RESOURCESAT-2A", "group": "resource", "lat": 76.01640947207014, "lon": -80.5400732380005, "alt_km": 813.3277528496556, "timestamp": "2025-12-17T07:00:46.549072+00:00", "meta": {"OBJECT_NAME": "RESOURCESAT-2A", "OBJECT_ID": "2016-074A", "EPOCH": "2025-12-16T23:46:59.345760", "MEAN_MOTION": 14.21600165, "ECCENTRICITY": 0.00012369, "INCLINATION": 98.7756, "RA_OF_ASC_NODE": 60.8221, "ARG_OF_PERICENTER": 234.3999, "MEAN_ANOMALY": 125.7063, "EPHEMERIS_TYPE": 0, "CLASSIFICATION_TYPE": "U", "NORAD_CAT_ID": 41877, "ELEMENT_SET_NO": 999, "REV_AT_EPOCH": 46841, "BSTAR": -5.2170046e-05, "MEAN_MOTION_DOT": -1.59e-06, "MEAN_MOTION_DDOT": 0}, "tle": {"line1": "1 41877U 16074A   25350.99096465 -.00000159  00000+0 -52170-4 0  9993", "line2": "2 41877  98.7756  60.8221 0001236 234.3999 125.7063 14.21600165468414"}}, "geometry": {"type": "Point", "coordinates": [-80.5400732380005, 76.01640947207014]}}, {"type": "Feature", "properties": {"norad_id": 41948, "name": "CARTOSAT-2D", "group": "resource", "lat": -81.29888688885138, "lon": 170.1018972320429, "alt_km": 516.8727496826659, "timestamp": "2025-12-17T07:00:46.549082+00:00", "meta": {"OBJECT_NAME": "CARTOSAT-2D", "OBJECT_ID": "2017-008A", "EPOCH": "2025-12-16T23:31:31.692288", "MEAN_MOTION": 15.19299925, "ECCENTRICITY": 0.00049987, "INCLINATION": 97.4387, "RA_OF_ASC_NODE": 48.4138, "ARG_OF_PERICENTER": 149.6291, "MEAN_ANOMALY": 210.5235, "EPHEMERIS_TYPE": 0, "CLASSIFICATION_TYPE": "U", "NORAD_CAT_ID": 41948, "ELEMENT_SET_NO": 999, "REV_AT_EPOCH": 48991, "BSTAR": 0.00018925246, "MEAN_MOTION_DOT": 3.927e-05, "MEAN_MOTION_DDOT": 0}, "tle": {"line1": "1 41948U 17008A   25350.98022792  .00003927  00000+0  18925-3 0  9994", "line2": "2 41948  97.4387  48.4138 0004998 149.6291 210.5235 15.19299925489917"}}, "geometry": {"type": "Point", "coordinates": [170.1018972320429, -81.29888688885138]}}, {"type": "Feature", "properties": {"norad_id": 42063, "name": "SENTINEL-2B", "group": "resource", "lat": -39.826931359769915, "lon": -123.5516250130796, "alt_km": 795.9874405967148, "timestamp": "2025-12-17T07:00:46.549093+00:00", "meta": {"OBJECT_NAME": "SENTINEL-2B", "OBJECT_ID": "2017-013A", "EPOCH": "2025-12-16T23:16:24.200256", "MEAN_MOTION": 14.30817652, "ECCENTRICITY": 0.00011547, "INCLINATION": 98.5714, "RA_OF_ASC_NODE": 63.3563, "ARG_OF_PERICENTER": 92.2504, "MEAN_ANOMALY": 267.8811, "EPHEMERIS_TYPE": 0, "CLASSIFICATION_TYPE": "U", "NORAD_CAT_ID": 42063, "ELEMENT_SET_NO": 999, "REV_AT_EPOCH": 45858, "BSTAR": 5.4559636e-05, "MEAN_MOTION_DOT": 9.9e-07, "MEAN_MOTION_DDOT": 0}, "tle": {"line1": "1 42063U 17013A   25350.96972454  .00000099  00000+0  54560-4 0  9999", "line2": "2 42063  98.5714  63.3563 0001154  92.2504 267.8811 14.30817652458580"}}, "geometry": {"type": "Point", "coordinates": [-123.5516250130796, -39.826931359769915]}}, {"type": "Feature", "properties": {"norad_id": 42767, "name": "CARTOSAT-2E", "group": "resource", "lat": 4.5967732525827, "lon": -130.57695460110546, "alt_km": 509.4699001664685, "timestamp": "2025-12-17T07:00:46.549104+00:00", "meta": {"OBJECT_NAME": "CARTOSAT-2E", "OBJECT_ID": "2017-036C", "EPOCH": "2025-12-16T22:20:24.417888", "MEAN_MOTION": 15.19236406, "ECCENTRICITY": 0.00021599, "INCLINATION": 97.4556, "RA_OF_ASC_NODE": 48.4631, "ARG_OF_PERICENTER": 216.4722, "MEAN_ANOMALY": 143.6366, "EPHEMERIS_TYPE": 0, "CLASSIFICATION_TYPE": "U", "NORAD_CAT_ID": 42767, "ELEMENT_SET_NO": 999, "REV_AT_EPOCH": 47047, "BSTAR": 0.00011114469, "MEAN_MOTION_DOT": 2.273e-05, "MEAN_MOTION_DDOT": 0}, "tle": {"line1": "1 42767U 17036C   25350.93083817  .00002273  00000+0  11114-3 0  9991", "line2": "2 42767  97.4556  48.4631 0002159 216.4722 143.6366 15.19236406470479"}}, "geometry": {"type": "Point", "coordinates": [-130.57695460110546, 4.5967732525827]}}, {"type": "Feature", "properties": {"norad_id": 42920, "name": "FORMOSAT-5", "group": "resource", "lat": -11.749541847216898, "lon": -116.20755318470233, "alt_km": 728.0789051329248, "timestamp": "2025-12-17T07:00:46.549114+00:00", "meta": {"OBJECT_NAME": "FORMOSAT-5", "OBJECT_ID": "2017-049A", "EPOCH": "2025-12-16T23:30:34.850592", "MEAN_MOTION": 14.50763083, "ECCENTRICITY": 0.00098848, "INCLINATION": 98.245, "RA_OF_ASC_NODE": 65.2144, "ARG_OF_PERICENTER": 287.31, "MEAN_ANOMALY": 72.7013, "EPHEMERIS_TYPE": 0, "CLASSIFICATION_TYPE": "U", "NORAD_CAT_ID": 42920, "ELEMENT_SET_NO": 999, "REV_AT_EPOCH": 44025, "BSTAR": 5.7102791e-05, "MEAN_MOTION_DOT": 1.81e-06, "MEAN_MOTION_DDOT": 0}, "tle": {"line1": "1 42920U 17049A   25350.97957003  .00000181  00000+0  57103-4 0  9992", "line2": "2 42920  98.2450  65.2144 0009884 287.3100  72.7013 14.50763083440251"}}, "geometry": {"type": "Point", "coordinates": [-116.20755318470233, -11.749541847216898]}}, {"type": "Feature", "properties": {"norad_id": 42969, "name": "SENTINEL-5P", "group": "resource", "lat": 70.90012905573137, "lon": -96.66755202599414, "alt_km": 819.4047083339829, "timestamp": "2025-12-17T07:00:46.549125+00:00", "meta": {"OBJECT_NAME": "SENTINEL-5P", "OBJECT_ID": "2017-064A", "EPOCH": "2025-12-16T20:31:13.742688", "MEAN_MOTION": 14.19518567, "ECCENTRICITY": 9.989e-05, "INCLINATION": 98.7788, "RA_OF_ASC_NODE": 289.4027, "ARG_OF_PERICENTER": 89.5444, "MEAN_ANOMALY": 270.5847, "EPHEMERIS_TYPE": 0, "CLASSIFICATION_TYPE": "U", "NORAD_CAT_ID": 42969, "ELEMENT_SET_NO": 999, "REV_AT_EPOCH": 42369, "BSTAR": 4.8930491e-05, "MEAN_MOTION_DOT": 5.9e-07, "MEAN_MOTION_DDOT": 0}, "tle": {"line1": "1 42969U 17064A   25350.85502017  .00000059  00000+0  48930-4 0  9992", "line2": "2 42969  98.7788 289.4027 0000998  89.5444 270.5847 14.19518567423695"}}, "geometry": {"type": "Point", "coordinates": [-96.66755202599414, 70.90012905573137]}}]}